     2.100          NAVIGATION                              RINEX VERSION / TYPE
fic2rin                                 02/03/2018 00:14:02 PGM / RUN BY / DATE
                                                            END OF HEADER
31 18  2  2 22  0  0.0  .144388526678D-03 -.261479726760D-11  .000000000000D+00
     .870000000000D+02 -.341562500000D+02  .493270546698D-08  .312736496042D+01
    -.171735882759D-05  .883123255335D-02  .586546957493D-05  .515359508705D+04
     .511200000000D+06 -.115483999252D-06  .254699258901D+01  .577419996262D-07
     .964277151797D+00  .270187500000D+03 -.161156165967D+00 -.814819654795D-08
    -.403945397376D-09  .100000000000D+01  .198600000000D+04  .000000000000D+00
     .240000000000D+01  .000000000000D+00 -.135041773319D-07  .870000000000D+02
     .504006000000D+06  .400000000000D+01
32 18  2  2 22  0  0.0 -.532879494131D-03  .341060513165D-12  .000000000000D+00
     .940000000000D+02  .501875000000D+02  .490984737199D-08  .723596469383D+00
     .254064798355D-05  .163151696324D-02  .809691846371D-05  .515362808037D+04
     .511200000000D+06  .316649675369D-07  .146092276580D+01 -.465661287308D-07
     .956950406014D+00  .221906250000D+03 -.269725093985D+01 -.826141554969D-08
     .584310053145D-09  .100000000000D+01  .198600000000D+04  .000000000000D+00
     .240000000000D+01  .000000000000D+00  .465661287308D-09  .940000000000D+02
     .504006000000D+06  .400000000000D+01
 4 18  2  2 21 59 44.0  .358475372195D-04  .227373675443D-11  .000000000000D+00
     .100000000000D+01  .195937500000D+02  .515664336632D-08  .114192967503D+01
     .125728547573D-05  .949410174508D-02  .134184956551D-04  .515368249702D+04
     .511184000000D+06 -.137835741043D-06 -.269267800569D+01  .558793544769D-07
     .980427512844D+00  .133187500000D+03  .893470483101D+00 -.779568186430D-08
    -.393944980818D-09  .100000000000D+01  .198600000000D+04  .000000000000D+00
     .240000000000D+01  .630000000000D+02 -.195577740669D-07  .100000000000D+01
     .504606000000D+06  .400000000000D+01
 3 18  2  2 21 59 44.0  .161211937666D-05  .716227077646D-11  .000000000000D+00
     .900000000000D+01 -.635000000000D+02  .411981446395D-08  .306070590294D+01
    -.326707959175D-05  .119042384904D-02  .120252370834D-04  .515357475090D+04
     .511184000000D+06  .000000000000D+00  .422063153744D+00 -.558793544769D-08
     .961043969716D+00  .148125000000D+03  .513455073773D+00 -.783961226560D-08
     .996470078407D-10  .100000000000D+01  .198600000000D+04  .000000000000D+00
     .240000000000D+01  .000000000000D+00  .232830643654D-08  .900000000000D+01
     .509406000000D+06  .400000000000D+01
 3 18  2  2 23 59 44.0  .166380777955D-05  .716227077646D-11  .000000000000D+00
     .100000000000D+02 -.749375000000D+02  .415160150230D-08 -.217263913786D+01
    -.378675758839D-05  .119189172983D-02  .120196491480D-04  .515357188034D+04
     .518384000000D+06 -.100582838058D-06  .422007331716D+00 -.186264514923D-08
     .961044635344D+00  .149031250000D+03  .513854315821D+00 -.778532429001D-08
     .267868300647D-10  .100000000000D+01  .198600000000D+04  .000000000000D+00
     .240000000000D+01  .000000000000D+00  .232830643654D-08  .100000000000D+02
     .511206000000D+06  .400000000000D+01
 4 18  2  2 23 59 44.0  .358633697033D-04  .227373675443D-11  .000000000000D+00
     .200000000000D+01  .246875000000D+02  .514985736937D-08  .219224462761D+01
     .123493373394D-05  .949484808370D-02  .138692557812D-04  .515367997169D+04
     .518384000000D+06 -.109896063805D-06 -.269273420223D+01 -.223517417908D-06
     .980425979706D+00  .120875000000D+03  .893336081891D+00 -.756567228348D-08
    -.287511976028D-09  .100000000000D+01  .198600000000D+04  .000000000000D+00
     .240000000000D+01  .630000000000D+02 -.195577740669D-07  .200000000000D+01
     .511206000000D+06  .400000000000D+01
 1 18  2  3  0  0  0.0 -.267424620688D-04 -.193267624127D-11  .000000000000D+00
     .590000000000D+02 -.713125000000D+02  .456304721209D-08 -.121805548899D+01
    -.371038913727D-05  .731057953089D-02  .306777656078D-05  .515367275810D+04
     .518400000000D+06  .234693288803D-06 -.620385604933D+00 -.279396772385D-07
     .970120693215D+00  .325375000000D+03  .615763382136D+00 -.835391940285D-08
    -.315727437029D-09  .100000000000D+01  .198600000000D+04  .000000000000D+00
     .340000000000D+01  .000000000000D+00  .558793544769D-08  .590000000000D+02
     .511206000000D+06  .400000000000D+01
 2 18  2  3  0  0  0.0  .211014412344D-03 -.104591890704D-10  .000000000000D+00
     .500000000000D+02 -.669375000000D+02  .530057793320D-08 -.826173815696D+00
    -.319629907608D-05  .177432170603D-01  .293180346489D-05  .515366689873D+04
     .518400000000D+06 -.115483999252D-06 -.679105220213D+00  .273808836937D-06
     .949104496938D+00  .319625000000D+03 -.190113386012D+01 -.895858744684D-08
    -.275725770799D-09  .100000000000D+01  .198600000000D+04  .000000000000D+00
     .240000000000D+01  .000000000000D+00 -.204890966415D-07  .500000000000D+02
     .511206000000D+06  .400000000000D+01
 5 18  2  3  0  0  0.0 -.153048895299D-04  .102318153949D-11  .000000000000D+00
     .110000000000D+02 -.653750000000D+02  .454054627483D-08  .175045674459D+01
    -.340119004250D-05  .528796180151D-02  .123139470816D-04  .515364232635D+04
     .518400000000D+06 -.633299350739D-07  .401749083536D+00  .149011611938D-07
     .947959507530D+00  .137687500000D+03  .625632129484D+00 -.802640576059D-08
    -.496449250533D-10  .100000000000D+01  .198600000000D+04  .000000000000D+00
     .240000000000D+01  .000000000000D+00 -.107102096081D-07  .110000000000D+02
     .511206000000D+06  .400000000000D+01
 6 18  2  3  0  0  0.0  .414800830185D-03 -.227373675443D-12  .000000000000D+00
     .500000000000D+02 -.724375000000D+02  .460054877418D-08 -.965032261833D+00
    -.372715294361D-05  .106175837573D-02  .315345823765D-05  .515356339455D+04
     .518400000000D+06 -.558793544769D-08 -.628722359598D+00  .000000000000D+00
     .969848991292D+00  .325093750000D+03 -.124463737905D+01 -.840070706603D-08
    -.302869758598D-09  .100000000000D+01  .198600000000D+04  .000000000000D+00
     .240000000000D+01  .000000000000D+00  .465661287308D-08  .500000000000D+02
     .511206000000D+06  .400000000000D+01
 7 18  2  3  0  0  0.0  .242444686592D-03 -.557065504836D-11  .000000000000D+00
     .670000000000D+02 -.363437500000D+02  .496984987134D-08 -.189985929859D+01
    -.207312405109D-05  .111535289325D-01  .527314841747D-05  .515368797874D+04
     .518400000000D+06  .156462192535D-06  .253491570141D+01 -.745058059692D-07
     .959577571355D+00  .274156250000D+03 -.254489798144D+01 -.827034449304D-08
    -.185007706314D-09  .100000000000D+01  .198600000000D+04  .000000000000D+00
     .240000000000D+01  .000000000000D+00 -.111758708954D-07  .670000000000D+02
     .511206000000D+06  .400000000000D+01
 8 18  2  3  0  0  0.0 -.898237340152D-04 -.136424205266D-11  .000000000000D+00
     .990000000000D+02  .963437500000D+02  .452983154281D-08  .138716836691D+01
     .509992241859D-05  .329100317322D-02  .574067234993D-05  .515375632286D+04
     .518400000000D+06  .335276126862D-07 -.168518057479D+01 -.558793544769D-07
     .968330706152D+00  .266812500000D+03 -.573127556355D+00 -.824962934446D-08
     .267868300647D-09  .100000000000D+01  .198600000000D+04  .000000000000D+00
     .340000000000D+01  .000000000000D+00  .558793544769D-08  .990000000000D+02
     .511206000000D+06  .400000000000D+01
 9 18  2  3  0  0  0.0  .498185865581D-03  .295585778076D-11  .000000000000D+00
     .230000000000D+02  .520000000000D+02  .482520098899D-08  .121380590215D+01
     .275112688541D-05  .117333675735D-02  .783428549767D-05  .515368719482D+04
     .518400000000D+06 -.335276126862D-07  .145644142640D+01 -.502914190292D-07
     .952542648470D+00  .222687500000D+03  .174067931113D+01 -.824748639806D-08
     .598953520247D-09  .100000000000D+01  .198600000000D+04  .000000000000D+00
     .240000000000D+01  .000000000000D+00  .139698386192D-08  .230000000000D+02
     .511206000000D+06  .400000000000D+01
10 18  2  3  0  0  0.0  .154905952513D-03  .511590769747D-11  .000000000000D+00
     .140000000000D+02 -.827500000000D+02  .415410160643D-08  .303360761597D+01
    -.415556132793D-05  .322715297807D-02  .135302543640D-04  .515367637444D+04
     .518400000000D+06  .931322574615D-08  .418481978563D+00 -.335276126862D-07
     .961162334418D+00  .117875000000D+03 -.284070569466D+01 -.779996775711D-08
     .271439877989D-10  .100000000000D+01  .198600000000D+04  .000000000000D+00
     .240000000000D+01  .000000000000D+00  .186264514923D-08  .140000000000D+02
     .511206000000D+06  .400000000000D+01
11 18  2  3  0  0  0.0 -.735513865948D-03 -.795807864051D-12  .000000000000D+00
     .560000000000D+02  .134687500000D+02  .609203947218D-08 -.192223068366D+01
     .100396573544D-05  .167515979847D-01  .709667801857D-06  .515375554657D+04
     .518400000000D+06  .156462192535D-06 -.103988730469D+01  .407919287682D-06
     .903789989155D+00  .334125000000D+03  .173739970041D+01 -.903894793703D-08
    -.353586156854D-10  .100000000000D+01  .198600000000D+04  .000000000000D+00
     .240000000000D+01  .000000000000D+00 -.121071934700D-07  .560000000000D+02
     .511206000000D+06  .400000000000D+01
12 18  2  3  0  0  0.0  .352307222784D-03 -.193267624127D-11  .000000000000D+00
     .810000000000D+02  .353750000000D+02  .372908390274D-08 -.248281348488D+01
     .183843076229D-05  .689018680714D-02  .129770487547D-04  .515365607452D+04
     .518400000000D+06  .167638063431D-06 -.265881170671D+01 -.763684511185D-07
     .987879532691D+00  .142312500000D+03  .917409853026D+00 -.749888378718D-08
    -.173578658819D-09  .100000000000D+01  .198600000000D+04  .000000000000D+00
     .340000000000D+01  .000000000000D+00 -.125728547573D-07  .810000000000D+02
     .511206000000D+06  .400000000000D+01
